CCSDS_OMM_VERS = 2.0
CREATION_DATE  = 
ORIGINATOR     = 

OBJECT_NAME    = UNKNOWN
OBJECT_ID      = 
CENTER_NAME    = EARTH
REF_FRAME      = TEME
TIME_SYSTEM    = UTC
MEAN_ELEMENT_THEORY = SGP/SGP4

EPOCH          = 2026-03-06T21:14:57.319296
MEAN_MOTION    = 13.46608113
ECCENTRICITY   = .0107126
INCLINATION    = 102.1703
RA_OF_ASC_NODE = 53.9790
ARG_OF_PERICENTER = 191.5163
MEAN_ANOMALY   = 168.3506

EPHEMERIS_TYPE = 0
CLASSIFICATION_TYPE = U
NORAD_CAT_ID   = 85047
ELEMENT_SET_NO = 999
REV_AT_EPOCH   = 58797
BSTAR          = .19405E-1
MEAN_MOTION_DOT = .12078E-3
MEAN_MOTION_DDOT = 0

CCSDS_OMM_VERS = 2.0
CREATION_DATE  = 
ORIGINATOR     = 

OBJECT_NAME    = UNKNOWN
OBJECT_ID      = 
CENTER_NAME    = EARTH
REF_FRAME      = TEME
TIME_SYSTEM    = UTC
MEAN_ELEMENT_THEORY = SGP/SGP4

EPOCH          = 2026-03-07T22:38:09.721248
MEAN_MOTION    = 12.77676496
ECCENTRICITY   = .0272199
INCLINATION    = 102.3999
RA_OF_ASC_NODE = 63.5648
ARG_OF_PERICENTER = 23.8493
MEAN_ANOMALY   = 4.7362

EPHEMERIS_TYPE = 0
CLASSIFICATION_TYPE = U
NORAD_CAT_ID   = 85061
ELEMENT_SET_NO = 999
REV_AT_EPOCH   = 56666
BSTAR          = .18471E-1
MEAN_MOTION_DOT = .4701E-4
MEAN_MOTION_DDOT = 0

CCSDS_OMM_VERS = 2.0
CREATION_DATE  = 
ORIGINATOR     = 

OBJECT_NAME    = UNKNOWN
OBJECT_ID      = 
CENTER_NAME    = EARTH
REF_FRAME      = TEME
TIME_SYSTEM    = UTC
MEAN_ELEMENT_THEORY = SGP/SGP4

EPOCH          = 2026-03-10T08:26:37.056192
MEAN_MOTION    = 14.40796548
ECCENTRICITY   = .0013903
INCLINATION    = 74.0442
RA_OF_ASC_NODE = 60.8006
ARG_OF_PERICENTER = 267.3078
MEAN_ANOMALY   = 160.2594

EPHEMERIS_TYPE = 0
CLASSIFICATION_TYPE = U
NORAD_CAT_ID   = 85100
ELEMENT_SET_NO = 999
REV_AT_EPOCH   = 64596
BSTAR          = .15775E-3
MEAN_MOTION_DOT = .479E-5
MEAN_MOTION_DDOT = 0

CCSDS_OMM_VERS = 2.0
CREATION_DATE  = 
ORIGINATOR     = 

OBJECT_NAME    = UNKNOWN
OBJECT_ID      = 
CENTER_NAME    = EARTH
REF_FRAME      = TEME
TIME_SYSTEM    = UTC
MEAN_ELEMENT_THEORY = SGP/SGP4

EPOCH          = 2026-03-09T06:26:29.922432
MEAN_MOTION    = 13.73031550
ECCENTRICITY   = .0010845
INCLINATION    = 100.0524
RA_OF_ASC_NODE = 178.3831
ARG_OF_PERICENTER = 151.0385
MEAN_ANOMALY   = 237.6955

EPHEMERIS_TYPE = 0
CLASSIFICATION_TYPE = U
NORAD_CAT_ID   = 85106
ELEMENT_SET_NO = 999
REV_AT_EPOCH   = 61494
BSTAR          = .87414E-3
MEAN_MOTION_DOT = .759E-5
MEAN_MOTION_DDOT = 0

CCSDS_OMM_VERS = 2.0
CREATION_DATE  = 
ORIGINATOR     = 

OBJECT_NAME    = UNKNOWN
OBJECT_ID      = 
CENTER_NAME    = EARTH
REF_FRAME      = TEME
TIME_SYSTEM    = UTC
MEAN_ELEMENT_THEORY = SGP/SGP4

EPOCH          = 2026-03-08T10:50:28.822272
MEAN_MOTION    = 14.83080407
ECCENTRICITY   = .000647
INCLINATION    = 98.3991
RA_OF_ASC_NODE = 300.5434
ARG_OF_PERICENTER = 230.0721
MEAN_ANOMALY   = 129.9923

EPHEMERIS_TYPE = 0
CLASSIFICATION_TYPE = U
NORAD_CAT_ID   = 85151
ELEMENT_SET_NO = 999
REV_AT_EPOCH   = 49221
BSTAR          = .48354E-2
MEAN_MOTION_DOT = .39543E-3
MEAN_MOTION_DDOT = 0

CCSDS_OMM_VERS = 2.0
CREATION_DATE  = 
ORIGINATOR     = 

OBJECT_NAME    = UNKNOWN
OBJECT_ID      = 
CENTER_NAME    = EARTH
REF_FRAME      = TEME
TIME_SYSTEM    = UTC
MEAN_ELEMENT_THEORY = SGP/SGP4

EPOCH          = 2026-03-08T15:32:05.156160
MEAN_MOTION    = 13.71670730
ECCENTRICITY   = .0216769
INCLINATION    = 99.8613
RA_OF_ASC_NODE = 216.0055
ARG_OF_PERICENTER = 94.9429
MEAN_ANOMALY   = 331.7966

EPHEMERIS_TYPE = 0
CLASSIFICATION_TYPE = U
NORAD_CAT_ID   = 85210
ELEMENT_SET_NO = 999
REV_AT_EPOCH   = 61393
BSTAR          = .37858E-3
MEAN_MOTION_DOT = .359E-5
MEAN_MOTION_DDOT = 0

CCSDS_OMM_VERS = 2.0
CREATION_DATE  = 
ORIGINATOR     = 

OBJECT_NAME    = UNKNOWN
OBJECT_ID      = 
CENTER_NAME    = EARTH
REF_FRAME      = TEME
TIME_SYSTEM    = UTC
MEAN_ELEMENT_THEORY = SGP/SGP4

EPOCH          = 2026-03-10T05:20:58.842528
MEAN_MOTION    = 14.37654305
ECCENTRICITY   = .0206466
INCLINATION    = 98.0220
RA_OF_ASC_NODE = 162.9037
ARG_OF_PERICENTER = 223.5473
MEAN_ANOMALY   = 134.9256

EPHEMERIS_TYPE = 0
CLASSIFICATION_TYPE = U
NORAD_CAT_ID   = 85217
ELEMENT_SET_NO = 999
REV_AT_EPOCH   = 64042
BSTAR          = .98351E-3
MEAN_MOTION_DOT = .3734E-4
MEAN_MOTION_DDOT = 0

CCSDS_OMM_VERS = 2.0
CREATION_DATE  = 
ORIGINATOR     = 

OBJECT_NAME    = UNKNOWN
OBJECT_ID      = 
CENTER_NAME    = EARTH
REF_FRAME      = TEME
TIME_SYSTEM    = UTC
MEAN_ELEMENT_THEORY = SGP/SGP4

EPOCH          = 2026-02-23T08:31:05.057760
MEAN_MOTION    = 14.01835433
ECCENTRICITY   = .0516167
INCLINATION    = 65.5338
RA_OF_ASC_NODE = 24.2147
ARG_OF_PERICENTER = 354.4749
MEAN_ANOMALY   = 5.0755

EPHEMERIS_TYPE = 0
CLASSIFICATION_TYPE = U
NORAD_CAT_ID   = 85237
ELEMENT_SET_NO = 999
REV_AT_EPOCH   = 61852
BSTAR          = .26977E-2
MEAN_MOTION_DOT = .13478E-3
MEAN_MOTION_DDOT = 0

CCSDS_OMM_VERS = 2.0
CREATION_DATE  = 
ORIGINATOR     = 

OBJECT_NAME    = UNKNOWN
OBJECT_ID      = 
CENTER_NAME    = EARTH
REF_FRAME      = TEME
TIME_SYSTEM    = UTC
MEAN_ELEMENT_THEORY = SGP/SGP4

EPOCH          = 2026-03-10T14:55:56.179200
MEAN_MOTION    = 13.88361079
ECCENTRICITY   = .0062839
INCLINATION    = 99.0684
RA_OF_ASC_NODE = 1.3196
ARG_OF_PERICENTER = 323.8599
MEAN_ANOMALY   = 159.5286

EPHEMERIS_TYPE = 0
CLASSIFICATION_TYPE = U
NORAD_CAT_ID   = 85238
ELEMENT_SET_NO = 999
REV_AT_EPOCH   = 62303
BSTAR          = .96758E-4
MEAN_MOTION_DOT = .74E-6
MEAN_MOTION_DDOT = 0

CCSDS_OMM_VERS = 2.0
CREATION_DATE  = 
ORIGINATOR     = 

OBJECT_NAME    = UNKNOWN
OBJECT_ID      = 
CENTER_NAME    = EARTH
REF_FRAME      = TEME
TIME_SYSTEM    = UTC
MEAN_ELEMENT_THEORY = SGP/SGP4

EPOCH          = 2026-03-09T23:11:59.924256
MEAN_MOTION    = 14.21790395
ECCENTRICITY   = .0223536
INCLINATION    = 97.9912
RA_OF_ASC_NODE = 69.3022
ARG_OF_PERICENTER = 46.9042
MEAN_ANOMALY   = 315.0604

EPHEMERIS_TYPE = 0
CLASSIFICATION_TYPE = U
NORAD_CAT_ID   = 85246
ELEMENT_SET_NO = 999
REV_AT_EPOCH   = 63546
BSTAR          = .89941E-3
MEAN_MOTION_DOT = .2513E-4
MEAN_MOTION_DDOT = 0

CCSDS_OMM_VERS = 2.0
CREATION_DATE  = 
ORIGINATOR     = 

OBJECT_NAME    = UNKNOWN
OBJECT_ID      = 
CENTER_NAME    = EARTH
REF_FRAME      = TEME
TIME_SYSTEM    = UTC
MEAN_ELEMENT_THEORY = SGP/SGP4

EPOCH          = 2026-03-10T08:55:42.130560
MEAN_MOTION    = 14.00435624
ECCENTRICITY   = .0050189
INCLINATION    = 100.4234
RA_OF_ASC_NODE = 122.6016
ARG_OF_PERICENTER = 8.7385
MEAN_ANOMALY   = 53.2367

EPHEMERIS_TYPE = 0
CLASSIFICATION_TYPE = U
NORAD_CAT_ID   = 85373
ELEMENT_SET_NO = 999
REV_AT_EPOCH   = 62439
BSTAR          = .17653E-2
MEAN_MOTION_DOT = .2591E-4
MEAN_MOTION_DDOT = 0

CCSDS_OMM_VERS = 2.0
CREATION_DATE  = 
ORIGINATOR     = 

OBJECT_NAME    = UNKNOWN
OBJECT_ID      = 
CENTER_NAME    = EARTH
REF_FRAME      = TEME
TIME_SYSTEM    = UTC
MEAN_ELEMENT_THEORY = SGP/SGP4

EPOCH          = 2026-03-10T09:50:05.466336
MEAN_MOTION    = 13.52350662
ECCENTRICITY   = .0054046
INCLINATION    = 100.4826
RA_OF_ASC_NODE = 43.5613
ARG_OF_PERICENTER = 25.9769
MEAN_ANOMALY   = 125.8389

EPHEMERIS_TYPE = 0
CLASSIFICATION_TYPE = U
NORAD_CAT_ID   = 87014
ELEMENT_SET_NO = 999
REV_AT_EPOCH   = 60276
BSTAR          = .46114E-2
MEAN_MOTION_DOT = .3024E-4
MEAN_MOTION_DDOT = 0

