UNKNOWN                 
1 85047U          26065.88538564  .00012078  00000+0  19405-1 0  9997
2 85047 102.1703  53.9790 0107126 191.5163 168.3506 13.46608113587974
UNKNOWN                 
1 85061U          26066.94316807  .00004701  00000+0  18471-1 0  9991
2 85061 102.3999  63.5648 0272199  23.8493   4.7362 12.77676496566662
UNKNOWN                 
1 85100U          26069.35181778  .00000479  00000+0  15775-3 0  9994
2 85100  74.0442  60.8006 0013903 267.3078 160.2594 14.40796548645961
UNKNOWN                 
1 85106U          26068.26840188  .00000759  00000+0  87414-3 0  9996
2 85106 100.0524 178.3831 0010845 151.0385 237.6955 13.73031550614945
UNKNOWN                 
1 85151U          26067.45172248  .00039543  00000+0  48354-2 0  9993
2 85151  98.3991 300.5434 0006470 230.0721 129.9923 14.83080407492210
UNKNOWN                 
1 85210U          26067.64728190  .00000359  00000+0  37858-3 0  9994
2 85210  99.8613 216.0055 0216769  94.9429 331.7966 13.71670730613933
UNKNOWN                 
1 85217U          26069.22290327  .00003734  00000+0  98351-3 0  9998
2 85217  98.0220 162.9037 0206466 223.5473 134.9256 14.37654305640428
UNKNOWN                 
1 85237U          26054.35491965  .00013478  00000+0  26977-2 0  9999
2 85237  65.5338  24.2147 0516167 354.4749   5.0755 14.01835433618525
UNKNOWN                 
1 85238U          26069.62217800  .00000074  00000+0  96758-4 0  9994
2 85238  99.0684   1.3196 0062839 323.8599 159.5286 13.88361079623037
UNKNOWN                 
1 85246U          26068.96666579  .00002513  00000+0  89941-3 0  9995
2 85246  97.9912  69.3022 0223536  46.9042 315.0604 14.21790395635466
UNKNOWN                 
1 85373U          26069.37201540  .00002591  00000+0  17653-2 0  9991
2 85373 100.4234 122.6016 0050189   8.7385  53.2367 14.00435624624393
UNKNOWN                 
1 87014U          26069.40978549  .00003024  00000+0  46114-2 0  9995
2 87014 100.4826  43.5613 0054046  25.9769 125.8389 13.52350662602762
